ONEWEB-0029             
1 45445U 20020X   25276.65984626  .00000536  00000+0  14764-2 0  9991
2 45445  87.8804  72.1533 0001581  92.2063 267.9246 13.11415370269039
ONEWEB-0068             
1 45446U 20020Y   25277.71175492  .00000148  00000+0  38120-3 0  9995
2 45446  87.8807  71.9318 0001475  90.5565 269.5732 13.11418729269119
ONEWEB-0046             
1 45447U 20020Z   25277.85600333 -.00000326  00000+0 -95627-3 0  9993
2 45447  87.8804  71.9122 0001663  84.2387 275.8931 13.11418112269141
ONEWEB-0063             
1 45448U 20020AA  25276.66408337  .00000542  00000+0  14944-2 0  9992
2 45448  87.8799  72.1485 0001901  89.2418 270.8928 13.11413991269078
ONEWEB-0019             
1 45449U 20020AB  25277.47705817 -.00000531  00000+0 -15352-2 0  9990
2 45449  87.8805  72.0023 0001660  91.3029 268.8289 13.11422201269024
ONEWEB-0094             
1 45450U 20020AC  25277.67773367 -.00000009  00000+0 -57064-4 0  9997
2 45450  87.9086  56.6453 0001589  96.4547 263.6766 13.17652141272665
ONEWEB-0087             
1 45451U 20020AD  25277.81857042  .00000257  00000+0  68836-3 0  9998
2 45451  87.8817  71.8695 0001348  91.4810 268.6472 13.11413600269119
ONEWEB-0082             
1 45452U 20020AE  25277.43383852  .00000392  00000+0  10701-2 0  9997
2 45452  87.8816  71.9717 0001518  96.7849 263.3452 13.11415467269151
ONEWEB-0050             
1 45453U 20020AF  25277.49873478 -.00081662  00000+0 -87237-2 0  9991
2 45453  88.5179 268.7173 0003023  82.8304 277.3267 14.89355796302318
ONEWEB-0034             
1 45454U 20020AG  25277.83650534 -.00000482  00000+0 -13956-2 0  9994
2 45454  87.8802  71.9109 0001636  94.3063 265.8252 13.11414653269124
ONEWEB-0060             
1 45455U 20020AH  25277.73140205  .00000529  00000+0  14561-2 0  9996
2 45455  87.8797  71.9568 0000453  92.1732 267.9447 13.11416025269069
ONEWEB-0086             
1 45456U 20020AJ  25277.71019662  .00000114  00000+0  28635-3 0  9995
2 45456  87.8805  71.9333 0001252 118.9030 241.2223 13.11418410269120
ONEWEB-0088             
1 45457U 20020AK  25277.68814583 -.00000506  00000+0 -14644-2 0  9998
2 45457  87.8814  71.8863 0001637  89.2018 270.9298 13.11414826269051
ONEWEB-0102             
1 47258U 20100A   25277.81651016  .00000013  00000+0  61744-6 0  9991
2 47258  87.8946  41.4158 0001835 102.8788 257.2545 13.12440722231231
ONEWEB-0109             
1 47259U 20100B   25276.60482864 -.00000293  00000+0 -85085-3 0  9994
2 47259  87.8940  41.6245 0001762 103.2832 256.8493 13.12442699230904
ONEWEB-0110             
1 47260U 20100C   25277.77433878 -.00000111  00000+0 -34253-3 0  9996
2 47260  87.8938  41.3761 0001512 106.1479 253.9816 13.12443935231222
ONEWEB-0111             
1 47261U 20100D   25277.80516705  .00000367  00000+0  98596-3 0  9993
2 47261  87.8947  41.3878 0001753  99.3193 260.8134 13.12441114231064
ONEWEB-0114             
1 47262U 20100E   25277.60726707 -.00000448  00000+0 -12819-2 0  9992
2 47262  87.8945  41.4209 0002013 101.9992 258.1362 13.12442442230998
ONEWEB-0117             
1 47263U 20100F   25277.59915639 -.00000273  00000+0 -79488-3 0  9997
2 47263  87.8944  41.4204 0001671  99.4382 260.6935 13.12442705231005
ONEWEB-0118             
1 47264U 20100G   25277.63160669  .00000285  00000+0  75562-3 0  9998
2 47264  87.8940  41.4131 0002055  94.9531 265.1832 13.12445662231207
ONEWEB-0119             
1 47265U 20100H   25277.81165326  .00000195  00000+0  50762-3 0  9999
2 47265  87.8942  41.4145 0001689 101.2261 258.9058 13.12441834231206
ONEWEB-0120             
1 47266U 20100J   25277.60578238 -.00000335  00000+0 -96677-3 0  9990
2 47266  87.8947  41.4577 0001820 101.4588 258.6745 13.12442975231209
ONEWEB-0121             
1 47267U 20100K   25277.82301374 -.00000199  00000+0 -58799-3 0  9991
2 47267  87.8942  41.3799 0001595 102.9199 257.2107 13.12442230231147
ONEWEB-0122             
1 47268U 20100L   25277.81799288 -.00000014  00000+0 -73809-4 0  9992
2 47268  87.8943  41.3840 0001729 105.1927 254.9393 13.12440590231057
ONEWEB-0123             
1 47269U 20100M   25277.81327656  .00000035  00000+0  61287-4 0  9997
2 47269  87.8942  41.4125 0001783  96.6972 263.4359 13.12440680231190
ONEWEB-0124             
1 47270U 20100N   25277.80192419  .00000385  00000+0  10348-2 0  9993
2 47270  87.8945  41.4178 0001554  96.6265 263.5040 13.12441315231075
ONEWEB-0125             
1 47271U 20100P   25277.62673123  .00000073  00000+0  16782-3 0  9993
2 47271  87.8940  41.4149 0001720  89.3980 270.7346 13.12444240231111
ONEWEB-0126             
1 47272U 20100Q   25277.80043948  .00000405  00000+0  10903-2 0  9997
2 47272  87.8954  41.4034 0001766  98.9212 261.2117 13.12443527231202
ONEWEB-0127             
1 47273U 20100R   25277.61375277 -.00000247  00000+0 -72113-3 0  9998
2 47273  87.8944  41.4518 0001785 103.0476 257.0852 13.12444107231204
ONEWEB-0128             
1 47274U 20100S   25277.78894186  .00000312  00000+0  83168-3 0  9995
2 47274  87.8932  41.4395 0001649 107.6972 252.4337 13.12442902231247
ONEWEB-0129             
1 47275U 20100T   25277.61537880 -.00000235  00000+0 -68776-3 0  9997
2 47275  87.8944  41.4204 0002833 111.7703 248.3727 13.12443540231150
ONEWEB-0130             
1 47276U 20100U   25277.79543354  .00000395  00000+0  10632-2 0  9992
2 47276  87.8940  41.3811 0001757 103.4936 256.6389 13.12441372231146
ONEWEB-0131             
1 47277U 20100V   25277.63971483  .00000512  00000+0  13891-2 0  9995
2 47277  87.8940  41.4418 0001685 101.1963 258.9355 13.12442810231164
ONEWEB-0132             
1 47278U 20100W   25277.82138801 -.00000132  00000+0 -40162-3 0  9998
2 47278  87.8946  41.4076 0001685 100.5774 259.5544 13.12442077231087
ONEWEB-0133             
1 47279U 20100X   25277.60874709 -.00000434  00000+0 -12409-2 0  9996
2 47279  87.8931  41.4167 0001571 102.8349 257.2955 13.12442005231217
ONEWEB-0134             
1 47280U 20100Y   25277.80678502  .00000293  00000+0  77793-3 0  9992
2 47280  87.8944  41.3672 0001752 108.6519 251.4799 13.12440889231217
ONEWEB-0135             
1 47281U 20100Z   25277.62511705 -.00000004  00000+0 -45174-4 0  9995
2 47281  87.8940  41.4435 0001642 113.8273 246.3027 13.12443081231219
ONEWEB-0136             
1 47282U 20100AA  25277.79706463  .00000416  00000+0  11200-2 0  9997
2 47282  87.8942  41.3780 0001870 112.8847 247.2479 13.12442213231164
ONEWEB-0137             
1 47283U 20100AB  25276.61131725 -.00000327  00000+0 -94512-3 0  9992
2 47283  87.8938  41.6200 0001876  96.0434 264.0909 13.12443800230911
ONEWEB-0138             
1 47284U 20100AC  25277.81002250  .00000234  00000+0  61597-3 0  9998
2 47284  87.8941  41.3910 0001762 106.1433 253.9890 13.12439990231155
ONEWEB-0139             
1 47285U 20100AD  25277.62039419 -.00000101  00000+0 -31565-3 0  9992
2 47285  87.8939  41.4191 0001696 100.2224 259.9096 13.12444939231203
ONEWEB-0140             
1 47286U 20100AE  25277.57483155  .00000479  00000+0  12951-2 0  9990
2 47286  87.8945  41.4134 0001746 103.3933 256.7390 13.12441944231165
ONEWEB-0141             
1 47287U 20100AF  25277.62010488 -.00000149  00000+0 -45069-3 0  9995
2 47287  87.8934  41.4180 0002010  93.7617 266.3741 13.12442074231152
ONEWEB-0142             
1 47288U 20100AG  25277.60903410 -.00000348  00000+0 -10037-2 0  9997
2 47288  87.8946  41.4384 0002079  97.4308 262.7057 13.12444076231148
ONEWEB-0143             
1 47289U 20100AH  25277.61861663 -.00000239  00000+0 -69966-3 0  9997
2 47289  87.8941  41.4328 0001685  98.8578 261.2741 13.12441968231127
ONEWEB-0144             
1 47290U 20100AJ  25277.81976050 -.00000095  00000+0 -29916-3 0  9999
2 47290  87.8939  41.3663 0001983 103.6467 256.4882 13.12440818231079
ONEWEB-0145             
1 47291U 20100AK  25277.63808818  .00000512  00000+0  13884-2 0  9994
2 47291  87.8941  41.4354 0001797 100.9915 259.1416 13.12442969231243
ONEWEB-0146             
1 47292U 20100AL  25277.63484852  .00000394  00000+0  10608-2 0  9992
2 47292  87.8938  41.4228 0001399  93.5481 266.5807 13.12444009231156
ONEWEB-0147             
1 47293U 20100AM  25277.60077378 -.00000258  00000+0 -75371-3 0  9991
2 47293  87.8946  41.4078 0001676 109.6354 250.4956 13.12442447231044
ONEWEB-0115             
1 48042U 21025A   25277.67605654 -.00000312  00000+0 -88936-3 0  9994
2 48042  87.9054  10.9808 0001768 100.0965 260.0364 13.13469829220058
ONEWEB-0152             
1 48043U 21025B   25277.68959580 -.00000141  00000+0 -42000-3 0  9998
2 48043  87.9041  10.9914 0001692 101.8164 258.3155 13.13469096220019
ONEWEB-0153             
1 48044U 21025C   25277.51523348 -.00000152  00000+0 -45056-3 0  9996
2 48044  87.9057  11.0267 0001895 100.2221 259.9122 13.13469325219982
ONEWEB-0154             
1 48045U 21025D   25277.66421044 -.00000259  00000+0 -74394-3 0  9998
2 48045  87.9060  10.9940 0001815 103.0286 257.1046 13.13469159219965
ONEWEB-0116             
1 48046U 21025E   25276.56048318  .00000382  00000+0  10123-2 0  9990
2 48046  87.9055  11.1953 0001692 100.1012 260.0308 13.13469618219969
ONEWEB-0150             
1 48047U 21025F   25277.67944381 -.00000290  00000+0 -82891-3 0  9991
2 48047  87.9054  10.9683 0001904  95.8759 264.2587 13.13469433220007
ONEWEB-0107             
1 48048U 21025G   25277.68114438 -.00000347  00000+0 -98506-3 0  9998
2 48048  87.9054  10.9654 0002126 104.3429 255.7937 13.13469930219984
ONEWEB-0101             
1 48049U 21025H   25277.72008573 -.00000182  00000+0 -53413-3 0  9991
2 48049  87.9051  10.9961 0001872 106.2361 253.8974 13.13465838219967
ONEWEB-0113             
1 48050U 21025J   25277.53481872 -.00000105  00000+0 -32111-3 0  9996
2 48050  87.9049  10.9699 0001666  93.4788 266.6532 13.13979874220037
ONEWEB-0112             
1 48051U 21025K   25277.68622303 -.00000231  00000+0 -66689-3 0  9996
2 48051  87.9050  10.9609 0001848  98.3663 261.7676 13.13469859220053
